{
  "norad_id": 49446,
  "name": "STARLINK-3099",
  "history": [
    {
      "epoch": "2026-03-28T19:41:17.795904",
      "apogee_km": 540.6902227205501,
      "perigee_km": 538.7478271058744,
      "latitude_deg": -51.80717390882833,
      "longitude_deg": -76.64689344004728,
      "semi_major_axis_km": 6917.8560249132115,
      "eccentricity": 0.00014039,
      "inclination_deg": 53.2175,
      "raan_deg": 123.2378,
      "arg_perigee_deg": 84.251,
      "mean_anomaly_deg": 275.8642,
      "mean_motion_rev_day": 15.08847971
    },
    {
      "epoch": "2026-03-29T02:02:50.482464",
      "apogee_km": 540.6568366425699,
      "perigee_km": 538.8069984940121,
      "latitude_deg": 34.43504656413757,
      "longitude_deg": -51.21057503973134,
      "semi_major_axis_km": 6917.868917568291,
      "eccentricity": 0.0001337,
      "inclination_deg": 53.2168,
      "raan_deg": 122.0486,
      "arg_perigee_deg": 84.8746,
      "mean_anomaly_deg": 275.2398,
      "mean_motion_rev_day": 15.08843753
    }
  ]
}